HULIANWANG DIGUI-148    
1 67524U 26013C   26037.49848552  .00000045  00000+0  16372-3 0  9999
2 67524  50.0060 112.2692 0001035  28.5692 331.5262 13.86045850  2544
HULIANWANG DIGUI-149    
1 67525U 26013D   26037.85692683  .00000030  00000+0  15105-3 0  9999
2 67525  50.0049 110.8482 0002819  25.1985 334.9049 13.85862199  2599
HULIANWANG DIGUI-150    
1 67526U 26013E   26037.34672948  .00000036  00000+0  15326-3 0  9997
2 67526  50.0101 112.7782 0001867   9.9743 350.1191 13.87098739  2543
HULIANWANG DIGUI-151    
1 67527U 26013F   26038.14170610  .00000015  00000+0  13463-3 0  9993
2 67527  50.0094 109.6765 0000271  95.8058 264.2870 13.87467287  2639
HULIANWANG DIGUI-152    
1 67528U 26013G   26037.34550585  .00000055  00000+0  16868-3 0  9994
2 67528  50.0087 112.7772 0001292  45.5027 314.5976 13.87461719  2525
HULIANWANG DIGUI-153    
1 67529U 26013H   26038.20572483 -.00000101  00000+0  37744-4 0  9992
2 67529  50.0038 109.3265 0000557 143.5291 216.5644 13.86734397  2635
HULIANWANG DIGUI-154    
1 67530U 26013J   26038.13142931  .00000130  00000+0  23300-3 0  9990
2 67530  50.0069 109.6110 0000588 171.5476 188.5431 13.87134016  2627
CZ-12 R/B               
1 67531U 26013K   26038.23311426  .00000199  00000+0  17983-3 0  9994
2 67531  49.9916 106.8017 0068591 192.9956 166.9187 14.14458028  2675
STARLINK-36587          
1 67532U 26014A   26038.16471082  .00247552  00000+0  12487-2 0  9992
2 67532  97.2838 281.5237 0001619  86.8200 273.3254 15.80958532  3769
STARLINK-36417          
1 67533U 26014B   26038.16668981 -.00078821  00000+0 -53174-3 0  9991
2 67533  97.2845 281.5127 0001218  89.6001 252.9503 15.75221523  3780
STARLINK-36576          
1 67534U 26014C   26038.16332417  .00148999  00000+0  76253-3 0  9999
2 67534  97.2840 281.5254 0000935  82.5896 277.5478 15.80898739  3763
STARLINK-36574          
1 67535U 26014D   26038.09873787  .00222803  00000+0  11273-2 0  9999
2 67535  97.2838 281.4588 0001318  71.8611 288.2801 15.80954760  3757
