CCSDS_OMM_VERS = 2.0
CREATION_DATE  = 
ORIGINATOR     = 

OBJECT_NAME    = HULIANWANG DIGUI-148
OBJECT_ID      = 2026-013C
CENTER_NAME    = EARTH
REF_FRAME      = TEME
TIME_SYSTEM    = UTC
MEAN_ELEMENT_THEORY = SGP/SGP4

EPOCH          = 2026-02-06T11:57:49.148928
MEAN_MOTION    = 13.86045850
ECCENTRICITY   = .00010353
INCLINATION    = 50.0060
RA_OF_ASC_NODE = 112.2692
ARG_OF_PERICENTER = 28.5692
MEAN_ANOMALY   = 331.5262

EPHEMERIS_TYPE = 0
CLASSIFICATION_TYPE = U
NORAD_CAT_ID   = 67524
ELEMENT_SET_NO = 999
REV_AT_EPOCH   = 254
BSTAR          = .16372109E-3
MEAN_MOTION_DOT = .45E-6
MEAN_MOTION_DDOT = 0

CCSDS_OMM_VERS = 2.0
CREATION_DATE  = 
ORIGINATOR     = 

OBJECT_NAME    = HULIANWANG DIGUI-149
OBJECT_ID      = 2026-013D
CENTER_NAME    = EARTH
REF_FRAME      = TEME
TIME_SYSTEM    = UTC
MEAN_ELEMENT_THEORY = SGP/SGP4

EPOCH          = 2026-02-06T20:33:58.478112
MEAN_MOTION    = 13.85862199
ECCENTRICITY   = .0002819
INCLINATION    = 50.0049
RA_OF_ASC_NODE = 110.8482
ARG_OF_PERICENTER = 25.1985
MEAN_ANOMALY   = 334.9049

EPHEMERIS_TYPE = 0
CLASSIFICATION_TYPE = U
NORAD_CAT_ID   = 67525
ELEMENT_SET_NO = 999
REV_AT_EPOCH   = 259
BSTAR          = .15105E-3
MEAN_MOTION_DOT = .3E-6
MEAN_MOTION_DDOT = 0

CCSDS_OMM_VERS = 2.0
CREATION_DATE  = 
ORIGINATOR     = 

OBJECT_NAME    = HULIANWANG DIGUI-150
OBJECT_ID      = 2026-013E
CENTER_NAME    = EARTH
REF_FRAME      = TEME
TIME_SYSTEM    = UTC
MEAN_ELEMENT_THEORY = SGP/SGP4

EPOCH          = 2026-02-06T08:19:17.427072
MEAN_MOTION    = 13.87098739
ECCENTRICITY   = .00018677
INCLINATION    = 50.0101
RA_OF_ASC_NODE = 112.7782
ARG_OF_PERICENTER = 9.9743
MEAN_ANOMALY   = 350.1191

EPHEMERIS_TYPE = 0
CLASSIFICATION_TYPE = U
NORAD_CAT_ID   = 67526
ELEMENT_SET_NO = 999
REV_AT_EPOCH   = 254
BSTAR          = .15325689E-3
MEAN_MOTION_DOT = .36E-6
MEAN_MOTION_DDOT = 0

CCSDS_OMM_VERS = 2.0
CREATION_DATE  = 
ORIGINATOR     = 

OBJECT_NAME    = HULIANWANG DIGUI-151
OBJECT_ID      = 2026-013F
CENTER_NAME    = EARTH
REF_FRAME      = TEME
TIME_SYSTEM    = UTC
MEAN_ELEMENT_THEORY = SGP/SGP4

EPOCH          = 2026-02-07T03:24:03.407040
MEAN_MOTION    = 13.87467287
ECCENTRICITY   = .0000271
INCLINATION    = 50.0094
RA_OF_ASC_NODE = 109.6765
ARG_OF_PERICENTER = 95.8058
MEAN_ANOMALY   = 264.2870

EPHEMERIS_TYPE = 0
CLASSIFICATION_TYPE = U
NORAD_CAT_ID   = 67527
ELEMENT_SET_NO = 999
REV_AT_EPOCH   = 263
BSTAR          = .13463E-3
MEAN_MOTION_DOT = .15E-6
MEAN_MOTION_DDOT = 0

CCSDS_OMM_VERS = 2.0
CREATION_DATE  = 
ORIGINATOR     = 

OBJECT_NAME    = HULIANWANG DIGUI-152
OBJECT_ID      = 2026-013G
CENTER_NAME    = EARTH
REF_FRAME      = TEME
TIME_SYSTEM    = UTC
MEAN_ELEMENT_THEORY = SGP/SGP4

EPOCH          = 2026-02-06T08:17:31.705440
MEAN_MOTION    = 13.87461719
ECCENTRICITY   = .00012926
INCLINATION    = 50.0087
RA_OF_ASC_NODE = 112.7772
ARG_OF_PERICENTER = 45.5027
MEAN_ANOMALY   = 314.5976

EPHEMERIS_TYPE = 0
CLASSIFICATION_TYPE = U
NORAD_CAT_ID   = 67528
ELEMENT_SET_NO = 999
REV_AT_EPOCH   = 252
BSTAR          = .16867519E-3
MEAN_MOTION_DOT = .55E-6
MEAN_MOTION_DDOT = 0

CCSDS_OMM_VERS = 2.0
CREATION_DATE  = 
ORIGINATOR     = 

OBJECT_NAME    = HULIANWANG DIGUI-153
OBJECT_ID      = 2026-013H
CENTER_NAME    = EARTH
REF_FRAME      = TEME
TIME_SYSTEM    = UTC
MEAN_ELEMENT_THEORY = SGP/SGP4

EPOCH          = 2026-02-07T04:56:14.625312
MEAN_MOTION    = 13.86734397
ECCENTRICITY   = .0000557
INCLINATION    = 50.0038
RA_OF_ASC_NODE = 109.3265
ARG_OF_PERICENTER = 143.5291
MEAN_ANOMALY   = 216.5644

EPHEMERIS_TYPE = 0
CLASSIFICATION_TYPE = U
NORAD_CAT_ID   = 67529
ELEMENT_SET_NO = 999
REV_AT_EPOCH   = 263
BSTAR          = .37744E-4
MEAN_MOTION_DOT = -.101E-5
MEAN_MOTION_DDOT = 0

CCSDS_OMM_VERS = 2.0
CREATION_DATE  = 
ORIGINATOR     = 

OBJECT_NAME    = HULIANWANG DIGUI-154
OBJECT_ID      = 2026-013J
CENTER_NAME    = EARTH
REF_FRAME      = TEME
TIME_SYSTEM    = UTC
MEAN_ELEMENT_THEORY = SGP/SGP4

EPOCH          = 2026-02-07T03:09:15.492384
MEAN_MOTION    = 13.87134016
ECCENTRICITY   = .0000588
INCLINATION    = 50.0069
RA_OF_ASC_NODE = 109.6110
ARG_OF_PERICENTER = 171.5476
MEAN_ANOMALY   = 188.5431

EPHEMERIS_TYPE = 0
CLASSIFICATION_TYPE = U
NORAD_CAT_ID   = 67530
ELEMENT_SET_NO = 999
REV_AT_EPOCH   = 262
BSTAR          = .233E-3
MEAN_MOTION_DOT = .13E-5
MEAN_MOTION_DDOT = 0

CCSDS_OMM_VERS = 2.0
CREATION_DATE  = 
ORIGINATOR     = 

OBJECT_NAME    = CZ-12 R/B
OBJECT_ID      = 2026-013K
CENTER_NAME    = EARTH
REF_FRAME      = TEME
TIME_SYSTEM    = UTC
MEAN_ELEMENT_THEORY = SGP/SGP4

EPOCH          = 2026-02-07T05:35:41.072064
MEAN_MOTION    = 14.14458028
ECCENTRICITY   = .0068591
INCLINATION    = 49.9916
RA_OF_ASC_NODE = 106.8017
ARG_OF_PERICENTER = 192.9956
MEAN_ANOMALY   = 166.9187

EPHEMERIS_TYPE = 0
CLASSIFICATION_TYPE = U
NORAD_CAT_ID   = 67531
ELEMENT_SET_NO = 999
REV_AT_EPOCH   = 267
BSTAR          = .17983E-3
MEAN_MOTION_DOT = .199E-5
MEAN_MOTION_DDOT = 0

CCSDS_OMM_VERS = 2.0
CREATION_DATE  = 
ORIGINATOR     = 

OBJECT_NAME    = STARLINK-36587
OBJECT_ID      = 2026-014A
CENTER_NAME    = EARTH
REF_FRAME      = TEME
TIME_SYSTEM    = UTC
MEAN_ELEMENT_THEORY = SGP/SGP4

EPOCH          = 2026-02-07T03:57:11.014848
MEAN_MOTION    = 15.80958532
ECCENTRICITY   = .0001619
INCLINATION    = 97.2838
RA_OF_ASC_NODE = 281.5237
ARG_OF_PERICENTER = 86.8200
MEAN_ANOMALY   = 273.3254

EPHEMERIS_TYPE = 0
CLASSIFICATION_TYPE = U
NORAD_CAT_ID   = 67532
ELEMENT_SET_NO = 999
REV_AT_EPOCH   = 376
BSTAR          = .12487E-2
MEAN_MOTION_DOT = .247552E-2
MEAN_MOTION_DDOT = 0

CCSDS_OMM_VERS = 2.0
CREATION_DATE  = 
ORIGINATOR     = 

OBJECT_NAME    = STARLINK-36417
OBJECT_ID      = 2026-014B
CENTER_NAME    = EARTH
REF_FRAME      = TEME
TIME_SYSTEM    = UTC
MEAN_ELEMENT_THEORY = SGP/SGP4

EPOCH          = 2026-02-07T04:00:01.999584
MEAN_MOTION    = 15.75221523
ECCENTRICITY   = .0001218
INCLINATION    = 97.2845
RA_OF_ASC_NODE = 281.5127
ARG_OF_PERICENTER = 89.6001
MEAN_ANOMALY   = 252.9503

EPHEMERIS_TYPE = 0
CLASSIFICATION_TYPE = U
NORAD_CAT_ID   = 67533
ELEMENT_SET_NO = 999
REV_AT_EPOCH   = 378
BSTAR          = -.53174E-3
MEAN_MOTION_DOT = -.78821E-3
MEAN_MOTION_DDOT = 0

CCSDS_OMM_VERS = 2.0
CREATION_DATE  = 
ORIGINATOR     = 

OBJECT_NAME    = STARLINK-36576
OBJECT_ID      = 2026-014C
CENTER_NAME    = EARTH
REF_FRAME      = TEME
TIME_SYSTEM    = UTC
MEAN_ELEMENT_THEORY = SGP/SGP4

EPOCH          = 2026-02-07T03:55:11.208288
MEAN_MOTION    = 15.80898739
ECCENTRICITY   = .0000935
INCLINATION    = 97.2840
RA_OF_ASC_NODE = 281.5254
ARG_OF_PERICENTER = 82.5896
MEAN_ANOMALY   = 277.5478

EPHEMERIS_TYPE = 0
CLASSIFICATION_TYPE = U
NORAD_CAT_ID   = 67534
ELEMENT_SET_NO = 999
REV_AT_EPOCH   = 376
BSTAR          = .76253E-3
MEAN_MOTION_DOT = .148999E-2
MEAN_MOTION_DDOT = 0

CCSDS_OMM_VERS = 2.0
CREATION_DATE  = 
ORIGINATOR     = 

OBJECT_NAME    = STARLINK-36574
OBJECT_ID      = 2026-014D
CENTER_NAME    = EARTH
REF_FRAME      = TEME
TIME_SYSTEM    = UTC
MEAN_ELEMENT_THEORY = SGP/SGP4

EPOCH          = 2026-02-07T02:22:10.951968
MEAN_MOTION    = 15.80954760
ECCENTRICITY   = .0001318
INCLINATION    = 97.2838
RA_OF_ASC_NODE = 281.4588
ARG_OF_PERICENTER = 71.8611
MEAN_ANOMALY   = 288.2801

EPHEMERIS_TYPE = 0
CLASSIFICATION_TYPE = U
NORAD_CAT_ID   = 67535
ELEMENT_SET_NO = 999
REV_AT_EPOCH   = 375
BSTAR          = .11273E-2
MEAN_MOTION_DOT = .222803E-2
MEAN_MOTION_DDOT = 0

